2001 DC106,e,1.9257,121.6424,38.7467,43.62174,0.0034210,0.07425461,0.0000,02/20.0/2001,2000,H 6.3,0.15
# From MPO273865
2001 DD106,e,1.8231,123.5159,2.8912,44.22742,0.0033509,0.09835081,44.5934,05/23.0/2014,2000,H 7.1,0.15
# From MPO 13818
2001 DR106,e,1.5228,151.5709,1.4573,44.46476,0.0033241,0.00000000,0.0000,02/20.0/2001,2000,H 8.3,0.15
# From MPO 13818
2001 DS106,e,6.2520,156.1676,357.1546,42.57092,0.0035484,0.00000000,0.0000,02/20.0/2001,2000,H 8.3,0.15
# From MPO 20837
2001 DM108,e,2.9185,151.2124,2.2905,45.43655,0.0032181,0.00000000,0.0000,02/20.0/2001,2000,H 7.3,0.15
# From MPO 20837
2001 DN108,e,8.2931,337.1110,176.3135,45.46350,0.0032152,0.00000000,0.0000,02/20.0/2001,2000,H 7.8,0.15
# From MPO 20837
2001 DO108,e,2.5693,148.6539,5.0313,42.95016,0.0035015,0.00000000,0.0000,02/20.0/2001,2000,H 8.4,0.15
# From MPO 20837
2001 DP108,e,1.3207,113.4405,121.3023,39.45889,0.0039764,0.30673935,311.8275,02/20.0/2001,2000,H10.0,0.15
# From MPO 23618
2001 DQ108,e,2.9123,331.8084,181.7025,45.41875,0.0032200,0.00000000,0.0000,02/20.0/2001,2000,H 8.6,0.15
# From MPO 25897
2001 DS108,e,3.0255,166.3582,347.2628,45.86866,0.0031727,0.00000000,0.0000,02/20.0/2001,2000,H 8.0,0.15
# From MPO 25897
2001 DT108,e,1.8517,176.0341,337.7024,39.50235,0.0039698,0.18832448,359.9916,02/20.0/2001,2000,H 9.5,0.15
# From MPO 27766
2001 DU108,e,3.3500,75.7062,170.5453,45.03169,0.0032616,0.04877237,359.9923,02/20.0/2001,2000,H 8.5,0.15
# From MPO 29689
2001 DV108,e,4.6571,338.4182,253.1509,46.20472,0.0031382,0.26602466,325.5562,05/23.0/2014,2000,H 8.2,0.15
# From MPO 27193
2001 ES24,e,4.0331,111.5178,272.2771,44.52378,0.0033175,0.06110672,146.7229,05/23.0/2014,2000,H 7.9,0.15
# From MPO 66185
2001 FU172,e,24.7308,32.4490,134.0046,39.39753,0.0039857,0.27040671,42.1898,05/23.0/2014,2000,H 8.3,0.15
# From MPO 13848
2001 FB185,e,4.3376,127.8674,26.2521,43.17582,0.0034741,0.08703570,359.9482,03/12.0/2001,2000,H10.4,0.15
# From MPO 13848
2001 FC185,e,20.0071,150.0685,4.7051,42.94577,0.0035021,0.10205619,359.9475,03/12.0/2001,2000,H 8.1,0.15
# From MPO198858
2001 FK185,e,1.1697,56.7946,168.4821,43.30465,0.0034586,0.04065000,352.7302,05/23.0/2014,2000,H 7.3,0.15
# From MPO206046
2001 FL185,e,3.5600,75.4905,69.2495,44.31860,0.0033406,0.07941473,28.8818,05/23.0/2014,2000,H 7.1,0.15
# From MPO 77529
2001 FN185,e,21.7274,203.3031,9.6408,42.55420,0.0035505,0.07362840,4.3102,05/23.0/2014,2000,H 7.3,0.15
# From MPO273865
2001 FO185,e,10.6352,205.7699,333.9219,46.53253,0.0031051,0.12066128,30.3424,05/23.0/2014,2000,H 6.6,0.15
# From MPO140092
2001 FQ185,e,3.2397,135.1595,68.1314,47.78933,0.0029834,0.23105068,5.3268,05/23.0/2014,2000,H 7.2,0.15
# From MPO 14427
2001 FS185,e,4.6009,97.3798,109.6199,43.25067,0.0034651,0.04216644,0.0895,04/21.0/2001,2000,H 7.7,0.15
# From MPO 60743
2001 FT185,e,19.4945,16.7927,145.0733,47.21790,0.0030377,0.10714345,45.4504,05/23.0/2014,2000,H 7.8,0.15
# From MPO 14427
2001 FU185,e,24.5523,192.2993,351.8767,39.36077,0.0039912,0.11443351,0.1036,04/21.0/2001,2000,H 9.0,0.15
# From MPO 14427
2001 FV185,e,24.2236,13.1022,171.6469,39.37937,0.0039884,0.12537472,0.1031,04/21.0/2001,2000,H 7.7,0.15
# From MPO 20839
2001 FC193,e,2.8361,153.0673,30.5929,46.49878,0.0031084,0.00000000,0.0000,03/12.0/2001,2000,H 8.6,0.15
# From MPO 20839
2001 FD193,e,12.5394,176.0413,7.8626,44.78881,0.0032881,0.00000000,0.0000,03/12.0/2001,2000,H 8.1,0.15
# From MPO102034
2001 FE193,e,2.8113,154.8486,339.5532,46.85300,0.0030733,0.12762928,53.8703,05/23.0/2014,2000,H 7.2,0.15
# From MPO 20839
2001 FF193,e,1.9457,170.0275,13.4338,44.73228,0.0032944,0.00000000,0.0000,03/12.0/2001,2000,H 7.7,0.15
# From MPO 20839
2001 FG193,e,3.2635,24.9303,158.5597,46.50162,0.0031081,0.10862414,359.9532,03/12.0/2001,2000,H 8.5,0.15
# From MPO 20839
2001 FH193,e,8.5686,177.6666,5.7761,44.68257,0.0032999,0.09052855,359.9501,03/12.0/2001,2000,H 9.1,0.15
# From MPO 20839
2001 FJ193,e,1.1056,128.1107,55.3672,39.34753,0.0039933,0.08053122,359.9395,03/12.0/2001,2000,H 9.3,0.15
# From MPO273865
2001 FK193,e,3.5164,89.8059,55.1873,44.00083,0.0033769,0.06122033,71.5828,05/23.0/2014,2000,H 6.8,0.15
# From MPO 20839
2001 FL193,e,0.9765,71.4036,112.1138,44.41787,0.0033294,0.08517046,359.9496,03/12.0/2001,2000,H 9.1,0.15
# From MPO 30455
2001 FJ194,e,10.3703,5.6991,175.1107,66.00232,0.0018381,0.43952114,359.9815,03/12.0/2001,2000,H 7.6,0.15
# From MPO 41681
2001 FK194,e,8.8165,182.5596,358.4853,76.32493,0.0014781,0.63301140,359.9851,03/12.0/2001,2000,H 8.9,0.15
# From MPO140092
2001 FM194,e,28.6654,181.7535,43.8966,54.19943,0.0024701,0.36675871,352.0162,05/23.0/2014,2000,H 7.6,0.15
# From MPO 30455
2001 FN194,e,7.4186,0.0802,181.8557,66.95360,0.0017990,0.47741699,359.9818,03/12.0/2001,2000,H 8.3,0.15
# From MPO157350
2001 HZ58,e,2.9398,88.5610,21.1114,42.71350,0.0035307,0.03978838,119.2438,05/23.0/2014,2000,H 6.3,0.15
# From MPO100023
2001 HA59,e,1.0136,149.3532,300.1150,43.68590,0.0034134,0.05025145,139.0532,05/23.0/2014,2000,H 6.5,0.15
# From MPO206046
2001 HY65,e,17.1224,188.1476,314.8515,43.28823,0.0034606,0.12306477,49.3705,05/23.0/2014,2000,H 6.4,0.15
# From MPO157350
2001 KF76,e,3.2132,50.9312,291.9318,44.28326,0.0033446,0.02281025,278.5761,05/23.0/2014,2000,H 7.2,0.15
# From MPO157350
2001 KG76,e,1.5505,96.0116,63.6057,51.50640,0.0026663,0.34257948,59.2848,05/23.0/2014,2000,H 6.2,0.15
# From MPO157350
2001 KH76,e,3.2535,261.6577,70.4508,46.01501,0.0031576,0.12094443,305.0638,05/23.0/2014,2000,H 6.8,0.15
# From MPO157350
2001 KL76,e,1.3342,255.3793,145.0578,44.39328,0.0033322,0.09806539,222.5942,05/23.0/2014,2000,H 6.6,0.15
# From MPO 14451
2001 KM76,e,1.4236,127.3117,121.1775,44.87062,0.0032791,0.07500544,0.0295,05/31.0/2001,2000,H 7.1,0.15
# From MPO 14451
2001 KQ76,e,6.1453,47.9936,165.2207,42.84204,0.0035148,0.02952505,0.0254,05/31.0/2001,2000,H 6.8,0.15
# From MPO 14451
2001 KS76,e,2.7938,158.6211,58.6527,43.63220,0.0034197,0.09225113,0.0246,05/31.0/2001,2000,H 7.5,0.15
# From MPO 66186
2001 KT76,e,1.7079,184.5096,343.7309,45.10425,0.0032537,0.08936082,57.3764,05/23.0/2014,2000,H 7.0,0.15
# From MPO198858
2001 KW76,e,10.4680,61.8392,241.7759,45.88154,0.0031714,0.21357756,329.9129,05/23.0/2014,2000,H 7.6,0.15
# From MPO 50536
2001 KY76,e,3.9738,90.0723,263.5514,39.21274,0.0040139,0.23439916,303.7488,05/23.0/2014,2000,H 6.1,0.15
# From MPO 14451
2001 KZ76,e,25.7156,41.9433,137.1280,78.99747,0.0014037,0.51618378,10.2644,05/31.0/2001,2000,H 7.8,0.15
# From MPO206046
2001 KA77,e,11.9310,239.1762,125.9233,47.28599,0.0030311,0.09246140,267.5213,05/23.0/2014,2000,H 5.0,0.15
# From MPO121764
2001 KB77,e,17.5258,223.0115,52.5834,39.50113,0.0039700,0.28091704,345.3881,05/23.0/2014,2000,H 7.2,0.15
# From MPO 87428
2001 KD77,e,2.2536,139.1024,88.0951,39.43373,0.0039802,0.11291093,36.3816,05/23.0/2014,2000,H 5.8,0.15
# From MPO140092
2001 KE77,e,21.0042,240.3125,324.7984,45.33691,0.0032287,0.18462866,46.7500,05/23.0/2014,2000,H 7.2,0.15
# From MPO 48035
2001 KG77,e,15.4961,250.5056,15.3074,61.41858,0.0020476,0.44726391,1.2917,05/23.0/2014,2000,H 8.1,0.15
# From MPO198858
2001 KO77,e,20.7509,245.6045,15.4033,43.80034,0.0034001,0.14379753,359.6176,05/23.0/2014,2000,H 8.0,0.15
# From MPO 16126
2001 OJ108,e,9.0942,118.5009,185.6573,44.90978,0.0032749,0.09127660,359.9538,07/10.0/2001,2000,H 7.8,0.15
# From MPO285652
2001 OK108,e,1.9993,114.8106,122.5568,42.77820,0.0035227,0.03358514,80.4482,05/23.0/2014,2000,H 7.4,0.15
# From MPO 23631
2001 OL108,e,2.6887,115.2653,190.1208,45.55745,0.0032053,0.10745857,0.1470,09/08.0/2001,2000,H 8.4,0.15
# From MPO 23631
2001 OM108,e,12.2223,126.7222,357.3812,46.05371,0.0031536,0.03717763,183.2607,09/08.0/2001,2000,H 8.0,0.15
# From MPO 20863
2001 ON108,e,1.1549,201.4344,104.7366,43.70417,0.0034113,0.00000000,0.1365,08/19.0/2001,2000,H 7.6,0.15
# From MPO 16126
2001 OO108,e,1.2606,20.5257,298.4999,44.87648,0.0032785,0.08305156,359.9464,07/10.0/2001,2000,H 7.8,0.15
# From MPO158408
2001 OQ108,e,2.3252,131.2281,329.3363,45.52268,0.0032089,0.01136447,129.1835,05/23.0/2014,2000,H 6.5,0.15
# From MPO 23631
2001 OR108,e,2.5941,91.3188,226.7559,45.66161,0.0031943,0.09776121,359.9544,07/10.0/2001,2000,H 7.9,0.15
# From MPO 16127
2001 OS108,e,1.4924,274.6167,32.1828,46.45306,0.0031130,0.00000000,0.0623,07/30.0/2001,2000,H 6.8,0.15
# From MPO 16127
2001 OT108,e,1.3941,129.3310,177.2900,66.95119,0.0017991,0.51564047,359.9727,07/10.0/2001,2000,H 9.2,0.15
# From MPO 16127
2001 OU108,e,27.4923,320.0737,359.5040,46.75398,0.0030830,0.00000000,0.0617,07/30.0/2001,2000,H 6.5,0.15
# From MPO 18350
2001 OY108,e,6.7931,58.2133,5.1144,46.05097,0.0031539,0.09870743,179.5687,07/10.0/2001,2000,H 7.4,0.15
# From MPO157350
2001 OZ108,e,2.1029,130.3306,62.7100,43.15398,0.0034767,0.05553376,122.7106,05/23.0/2014,2000,H 8.3,0.15
# From MPO 33426
2001 OG109,e,0.5511,332.5568,27.5135,43.35744,0.0034523,0.01212410,323.5676,05/23.0/2014,2000,H 8.2,0.15
# From MPO157350
2001 OM109,e,3.5622,306.8993,291.1575,68.11262,0.0017533,0.49223959,33.8917,05/23.0/2014,2000,H 7.9,0.15
# From MPO181624
2001 PK47,e,8.7216,248.0754,170.8647,39.80600,0.0039245,0.06718710,330.8210,05/23.0/2014,2000,H 6.5,0.15
# From MPO 57835
2001 QF6,e,24.1716,143.9291,240.4901,7.222161,0.0507812,0.68786297,228.2087,05/23.0/2014,2000,H15.3,0.15
# From MPO128726
2001 QO297,e,1.1363,143.3317,318.3055,42.86295,0.0035122,0.03928582,266.7364,05/23.0/2014,2000,H 5.9,0.15
# From MPO285653
2001 QP297,e,1.4307,111.8276,163.8043,45.16303,0.0032474,0.11852459,78.4552,05/23.0/2014,2000,H 6.6,0.15
# From MPO285653
2001 QQ297,e,4.4121,80.6936,210.7687,44.30363,0.0033423,0.07988631,68.5573,05/23.0/2014,2000,H 7.1,0.15
# From MPO186865
2001 QR297,e,5.1523,148.0641,229.9546,44.25000,0.0033484,0.02410800,323.2984,05/23.0/2014,2000,H 6.3,0.15
# From MPO 41721
2001 QS297,e,5.2255,309.8012,13.8817,43.79722,0.0034004,0.00000000,0.0000,08/19.0/2001,2000,H 5.4,0.15
# From MPO 41721
2001 QU297,e,3.3854,115.2959,210.2585,43.70629,0.0034111,0.00000000,0.0000,08/19.0/2001,2000,H 6.0,0.15
# From MPO 20939
